[
    {
        "Altitude(m)": 604969.0892345944,
        "Argument of Periapsis(deg)": 0.0,
        "Eccentricity": 0.0,
        "Inclination(deg)": 60.0,
        "Latitude(deg)": -0.09274270173238958,
        "Longitude(deg)": -70.02247233787514,
        "Mean Anomaly(deg)": 0.0,
        "RAAN(deg)": 30.0,
        "Satellite Name": "Test1 132",
        "Satellite Number": 132,
        "Semi-Major Axis(m)": 6980739.136638005,
        "Time(s)": 0
    },
    {
        "Altitude(m)": 604900.028159223,
        "Argument of Periapsis(deg)": 0.00010418945913296404,
        "Eccentricity": 0.0,
        "Inclination(deg)": 60.0,
        "Latitude(deg)": 0.44768336197411257,
        "Longitude(deg)": -69.75434964509134,
        "Mean Anomaly(deg)": 0.6201061454618275,
        "RAAN(deg)": 29.99957995086026,
        "Satellite Name": "Test1 132",
        "Satellite Number": 132,
        "Semi-Major Axis(m)": 6980739.136638005,
        "Time(s)": 10
    },
    {
        "Altitude(m)": 604834.1951542184,
        "Argument of Periapsis(deg)": 0.0002083789182659281,
        "Eccentricity": 0.0,
        "Inclination(deg)": 60.0,
        "Latitude(deg)": 0.9881062017636351,
        "Longitude(deg)": -69.48617554843602,
        "Mean Anomaly(deg)": 1.2402122909236615,
        "RAAN(deg)": 29.999159901720517,
        "Satellite Name": "Test1 132",
        "Satellite Number": 132,
        "Semi-Major Axis(m)": 6980739.136638005,
        "Time(s)": 20
    },
    {
        "Altitude(m)": 604771.5965988471,
        "Argument of Periapsis(deg)": 0.00031256837739889213,
        "Eccentricity": 0.0,
        "Inclination(deg)": 60.0,
        "Latitude(deg)": 1.528508731643039,
        "Longitude(deg)": -69.21789565857677,
        "Mean Anomaly(deg)": 1.860318436385489,
        "RAAN(deg)": 29.99873985258077,
        "Satellite Name": "Test1 132",
        "Satellite Number": 132,
        "Semi-Major Axis(m)": 6980739.136638005,
        "Time(s)": 30
    },
    {
        "Altitude(m)": 604712.2373424798,
        "Argument of Periapsis(deg)": 0.0004167578365318562,
        "Eccentricity": 0.0,
        "Inclination(deg)": 60.0,
        "Latitude(deg)": 2.068873844159036,
        "Longitude(deg)": -68.94945501764478,
        "Mean Anomaly(deg)": 2.480424581847323,
        "RAAN(deg)": 29.998319803441028,
        "Satellite Name": "Test1 132",
        "Satellite Number": 132,
        "Semi-Major Axis(m)": 6980739.136638005,
        "Time(s)": 40
    },
    {
        "Altitude(m)": 604656.120705036,
        "Argument of Periapsis(deg)": 0.0005209472956648203,
        "Eccentricity": 0.0,
        "Inclination(deg)": 60.0,
        "Latitude(deg)": 2.609184400486561,
        "Longitude(deg)": -68.68079907579984,
        "Mean Anomaly(deg)": 3.1005307273091502,
        "RAAN(deg)": 29.997899754301283,
        "Satellite Name": "Test1 132",
        "Satellite Number": 132,
        "Semi-Major Axis(m)": 6980739.136638005,
        "Time(s)": 50
    },
    {
        "Altitude(m)": 604603.2484781786,
        "Argument of Periapsis(deg)": 0.0006251367547977843,
        "Eccentricity": 0.0,
        "Inclination(deg)": 60.0,
        "Latitude(deg)": 3.149423220478108,
        "Longitude(deg)": -68.41187315483323,
        "Mean Anomaly(deg)": 3.7206368727709846,
        "RAAN(deg)": 29.99747970516154,
        "Satellite Name": "Test1 132",
        "Satellite Number": 132,
        "Semi-Major Axis(m)": 6980739.136638005,
        "Time(s)": 60
    },
    {
        "Altitude(m)": 604553.6209272657,
        "Argument of Periapsis(deg)": 0.0007293262139307483,
        "Eccentricity": 0.0,
        "Inclination(deg)": 60.0,
        "Latitude(deg)": 3.6895730726597753,
        "Longitude(deg)": -68.14262191165245,
        "Mean Anomaly(deg)": 4.340743018232812,
        "RAAN(deg)": 29.997059656021797,
        "Satellite Name": "Test1 132",
        "Satellite Number": 132,
        "Semi-Major Axis(m)": 6980739.136638005,
        "Time(s)": 70
    },
    {
        "Altitude(m)": 604507.2367940585,
        "Argument of Periapsis(deg)": 0.0008335156730637124,
        "Eccentricity": 0.0,
        "Inclination(deg)": 60.0,
        "Latitude(deg)": 4.229616664159929,
        "Longitude(deg)": -67.8729903144921,
        "Mean Anomaly(deg)": 4.960849163694646,
        "RAAN(deg)": 29.996639606882056,
        "Satellite Name": "Test1 132",
        "Satellite Number": 132,
        "Semi-Major Axis(m)": 6980739.136638005,
        "Time(s)": 80
    },
    {
        "Altitude(m)": 604464.0933001698,
        "Argument of Periapsis(deg)": 0.0009377051321966765,
        "Eccentricity": 0.0,
        "Inclination(deg)": 60.0,
        "Latitude(deg)": 4.769536630558181,
        "Longitude(deg)": -67.6029231060762,
        "Mean Anomaly(deg)": 5.580955309156474,
        "RAAN(deg)": 29.996219557742315,
        "Satellite Name": "Test1 132",
        "Satellite Number": 132,
        "Semi-Major Axis(m)": 6980739.136638005,
        "Time(s)": 90
    },
    {
        "Altitude(m)": 604424.1861512739,
        "Argument of Periapsis(deg)": 0.0010418945913296407,
        "Eccentricity": 0.0,
        "Inclination(deg)": 60.0,
        "Latitude(deg)": 5.309315525640375,
        "Longitude(deg)": -67.33236426657491,
        "Mean Anomaly(deg)": 6.2010614546183085,
        "RAAN(deg)": 29.995799508602573,
        "Satellite Name": "Test1 132",
        "Satellite Number": 132,
        "Semi-Major Axis(m)": 6980739.136638005,
        "Time(s)": 100
    },
    {
        "Altitude(m)": 604387.5095420368,
        "Argument of Periapsis(deg)": 0.0011460840504626045,
        "Eccentricity": 0.0,
        "Inclination(deg)": 60.0,
        "Latitude(deg)": 5.848935811044789,
        "Longitude(deg)": -67.06125798920124,
        "Mean Anomaly(deg)": 6.821167600080136,
        "RAAN(deg)": 29.99537945946283,
        "Satellite Name": "Test1 132",
        "Satellite Number": 132,
        "Semi-Major Axis(m)": 6980739.136638005,
        "Time(s)": 110
    },
    {
        "Altitude(m)": 604354.0561618103,
        "Argument of Periapsis(deg)": 0.0012502735095955685,
        "Eccentricity": 0.0,
        "Inclination(deg)": 60.0,
        "Latitude(deg)": 6.388379845787113,
        "Longitude(deg)": -66.7895481426708,
        "Mean Anomaly(deg)": 7.441273745541969,
        "RAAN(deg)": 29.994959410323087,
        "Satellite Name": "Test1 132",
        "Satellite Number": 132,
        "Semi-Major Axis(m)": 6980739.136638005,
        "Time(s)": 120
    },
    {
        "Altitude(m)": 604323.8172010697,
        "Argument of Periapsis(deg)": 0.0013544629687285324,
        "Eccentricity": 0.0,
        "Inclination(deg)": 60.0,
        "Latitude(deg)": 6.9276298756491705,
        "Longitude(deg)": -66.51717773336969,
        "Mean Anomaly(deg)": 8.06137989100379,
        "RAAN(deg)": 29.994539361183346,
        "Satellite Name": "Test1 132",
        "Satellite Number": 132,
        "Semi-Major Axis(m)": 6980739.136638005,
        "Time(s)": 130
    },
    {
        "Altitude(m)": 604296.7823585538,
        "Argument of Periapsis(deg)": 0.0014586524278614966,
        "Eccentricity": 0.0,
        "Inclination(deg)": 60.0,
        "Latitude(deg)": 7.466668022416085,
        "Longitude(deg)": -66.24408988007337,
        "Mean Anomaly(deg)": 8.681486036465618,
        "RAAN(deg)": 29.994119312043605,
        "Satellite Name": "Test1 132",
        "Satellite Number": 132,
        "Semi-Major Axis(m)": 6980739.136638005,
        "Time(s)": 140
    },
    {
        "Altitude(m)": 604272.9398491709,
        "Argument of Periapsis(deg)": 0.0015628418869944607,
        "Eccentricity": 0.0,
        "Inclination(deg)": 60.0,
        "Latitude(deg)": 8.005476272948835,
        "Longitude(deg)": -65.97022727544157,
        "Mean Anomaly(deg)": 9.301592181927452,
        "RAAN(deg)": 29.993699262903853,
        "Satellite Name": "Test1 132",
        "Satellite Number": 132,
        "Semi-Major Axis(m)": 6980739.136638005,
        "Time(s)": 150
    },
    {
        "Altitude(m)": 604252.2764126206,
        "Argument of Periapsis(deg)": 0.0016670313461274247,
        "Eccentricity": 0.0,
        "Inclination(deg)": 60.0,
        "Latitude(deg)": 8.544036468076404,
        "Longitude(deg)": -65.69553164713244,
        "Mean Anomaly(deg)": 9.92169832738928,
        "RAAN(deg)": 29.99327921376411,
        "Satellite Name": "Test1 132",
        "Satellite Number": 132,
        "Semi-Major Axis(m)": 6980739.136638005,
        "Time(s)": 160
    },
    {
        "Altitude(m)": 604234.7773227153,
        "Argument of Periapsis(deg)": 0.0017712208052603888,
        "Eccentricity": 0.0,
        "Inclination(deg)": 60.0,
        "Latitude(deg)": 9.082330291291479,
        "Longitude(deg)": -65.41994473137959,
        "Mean Anomaly(deg)": 10.541804472851114,
        "RAAN(deg)": 29.99285916462437,
        "Satellite Name": "Test1 132",
        "Satellite Number": 132,
        "Semi-Major Axis(m)": 6980739.136638005,
        "Time(s)": 170
    },
    {
        "Altitude(m)": 604220.426397461,
        "Argument of Periapsis(deg)": 0.001875410264393353,
        "Eccentricity": 0.0,
        "Inclination(deg)": 60.0,
        "Latitude(deg)": 9.62033925723577,
        "Longitude(deg)": -65.14340773325627,
        "Mean Anomaly(deg)": 11.161910618312941,
        "RAAN(deg)": 29.99243911548463,
        "Satellite Name": "Test1 132",
        "Satellite Number": 132,
        "Semi-Major Axis(m)": 6980739.136638005,
        "Time(s)": 180
    },
    {
        "Altitude(m)": 604209.206009792,
        "Argument of Periapsis(deg)": 0.0019795997235263173,
        "Eccentricity": 0.0,
        "Inclination(deg)": 60.0,
        "Latitude(deg)": 10.158044699958369,
        "Longitude(deg)": -64.8658607864699,
        "Mean Anomaly(deg)": 11.782016763774774,
        "RAAN(deg)": 29.992019066344888,
        "Satellite Name": "Test1 132",
        "Satellite Number": 132,
        "Semi-Major Axis(m)": 6980739.136638005,
        "Time(s)": 190
    }
]